{
"type": "FeatureCollection",
"name": "subway",
"crs": { "type": "name", "properties": { "name": "urn:ogc:def:crs:OGC:1.3:CRS84" } },
"features": [
{ "type": "Feature", "properties": { "station_id": "ST001", "station_name": "4.19민주묘지", "SWST_NM": "4.19민주묘지", "hoseon": "우이신설선", "longitude": 127.013684, "latitude": 37.649502 }, "geometry": { "type": "Point", "coordinates": [ 127.013684, 37.649502 ] } },
{ "type": "Feature", "properties": { "station_id": "ST002", "station_name": "가락시장", "SWST_NM": "가락시장", "hoseon": "3호선", "longitude": 127.11807749862554, "latitude": 37.492566500445854 }, "geometry": { "type": "Point", "coordinates": [ 127.118077498625539, 37.492566500445854 ] } },
{ "type": "Feature", "properties": { "station_id": "ST003", "station_name": "가산디지털단지", "SWST_NM": "가산디지털단지", "hoseon": "1호선, 7호선", "longitude": 126.88261850031745, "latitude": 37.480959500039241 }, "geometry": { "type": "Point", "coordinates": [ 126.882618500317449, 37.480959500039241 ] } },
{ "type": "Feature", "properties": { "station_id": "ST004", "station_name": "가양", "SWST_NM": "가양", "hoseon": "9호선", "longitude": 126.854456, "latitude": 37.561391 }, "geometry": { "type": "Point", "coordinates": [ 126.854456, 37.561391 ] } },
{ "type": "Feature", "properties": { "station_id": "ST005", "station_name": "가오리", "SWST_NM": "가오리", "hoseon": "우이신설선", "longitude": 127.016789, "latitude": 37.641537 }, "geometry": { "type": "Point", "coordinates": [ 127.016789, 37.641537 ] } },
{ "type": "Feature", "properties": { "station_id": "ST006", "station_name": "가좌", "SWST_NM": "가좌", "hoseon": "경의중앙선", "longitude": 126.915487, "latitude": 37.568491 }, "geometry": { "type": "Point", "coordinates": [ 126.915487, 37.568491 ] } },
{ "type": "Feature", "properties": { "station_id": "ST007", "station_name": "강남", "SWST_NM": "강남", "hoseon": "2호선, 신분당선", "longitude": 127.02800800073659, "latitude": 37.497413500066898 }, "geometry": { "type": "Point", "coordinates": [ 127.028008000736591, 37.497413500066898 ] } },
{ "type": "Feature", "properties": { "station_id": "ST008", "station_name": "강남구청", "SWST_NM": "강남구청", "hoseon": "7호선, 수인분당선", "longitude": 127.04120300010051, "latitude": 37.517324000013168 }, "geometry": { "type": "Point", "coordinates": [ 127.041203000100509, 37.517324000013168 ] } },
{ "type": "Feature", "properties": { "station_id": "ST009", "station_name": "강동", "SWST_NM": "강동", "hoseon": "3호선", "longitude": 127.132481, "latitude": 37.535804 }, "geometry": { "type": "Point", "coordinates": [ 127.132481, 37.535804 ] } },
{ "type": "Feature", "properties": { "station_id": "ST010", "station_name": "강동구청", "SWST_NM": "강동구청", "hoseon": "8호선", "longitude": 127.120508, "latitude": 37.530341 }, "geometry": { "type": "Point", "coordinates": [ 127.120508, 37.530341 ] } },
{ "type": "Feature", "properties": { "station_id": "ST011", "station_name": "강변(동서울터미널)", "SWST_NM": "강변(동서울터미널)", "hoseon": "2호선", "longitude": 127.094681, "latitude": 37.535095 }, "geometry": { "type": "Point", "coordinates": [ 127.094681, 37.535095 ] } },
{ "type": "Feature", "properties": { "station_id": "ST012", "station_name": "강일", "SWST_NM": "강일", "hoseon": "5호선", "longitude": 127.17593, "latitude": 37.55749 }, "geometry": { "type": "Point", "coordinates": [ 127.17593, 37.55749 ] } },
{ "type": "Feature", "properties": { "station_id": "ST013", "station_name": "개롱", "SWST_NM": "개롱", "hoseon": "5호선", "longitude": 127.13482, "latitude": 37.498079 }, "geometry": { "type": "Point", "coordinates": [ 127.13482, 37.498079 ] } },
{ "type": "Feature", "properties": { "station_id": "ST014", "station_name": "개봉", "SWST_NM": "개봉", "hoseon": "1호선", "longitude": 126.85968, "latitude": 37.494594 }, "geometry": { "type": "Point", "coordinates": [ 126.85968, 37.494594 ] } },
{ "type": "Feature", "properties": { "station_id": "ST015", "station_name": "개포동", "SWST_NM": "개포동", "hoseon": "수인분당선", "longitude": 127.06614, "latitude": 37.489116 }, "geometry": { "type": "Point", "coordinates": [ 127.06614, 37.489116 ] } },
{ "type": "Feature", "properties": { "station_id": "ST016", "station_name": "개화", "SWST_NM": "개화", "hoseon": "9호선", "longitude": 126.798153, "latitude": 37.578608 }, "geometry": { "type": "Point", "coordinates": [ 126.798153, 37.578608 ] } },
{ "type": "Feature", "properties": { "station_id": "ST017", "station_name": "개화산", "SWST_NM": "개화산", "hoseon": "5호선", "longitude": 126.806171, "latitude": 37.572399 }, "geometry": { "type": "Point", "coordinates": [ 126.806171, 37.572399 ] } },
{ "type": "Feature", "properties": { "station_id": "ST018", "station_name": "거여", "SWST_NM": "거여", "hoseon": "5호선", "longitude": 127.14415, "latitude": 37.493105 }, "geometry": { "type": "Point", "coordinates": [ 127.14415, 37.493105 ] } },
{ "type": "Feature", "properties": { "station_id": "ST019", "station_name": "건대입구", "SWST_NM": "건대입구", "hoseon": "2호선, 7호선", "longitude": 127.07010099749546, "latitude": 37.540579503512411 }, "geometry": { "type": "Point", "coordinates": [ 127.070100997495459, 37.540579503512411 ] } },
{ "type": "Feature", "properties": { "station_id": "ST020", "station_name": "경복궁(정부서울청사)", "SWST_NM": "경복궁(정부서울청사)", "hoseon": "3호선", "longitude": 126.97353, "latitude": 37.575762 }, "geometry": { "type": "Point", "coordinates": [ 126.97353, 37.575762 ] } },
{ "type": "Feature", "properties": { "station_id": "ST021", "station_name": "경찰병원", "SWST_NM": "경찰병원", "hoseon": "3호선", "longitude": 127.12454, "latitude": 37.495918 }, "geometry": { "type": "Point", "coordinates": [ 127.12454, 37.495918 ] } },
{ "type": "Feature", "properties": { "station_id": "ST022", "station_name": "고덕", "SWST_NM": "고덕", "hoseon": "5호선", "longitude": 127.154151, "latitude": 37.555004 }, "geometry": { "type": "Point", "coordinates": [ 127.154151, 37.555004 ] } },
{ "type": "Feature", "properties": { "station_id": "ST023", "station_name": "고려대(종암)", "SWST_NM": "고려대(종암)", "hoseon": "6호선", "longitude": 127.036296, "latitude": 37.590508 }, "geometry": { "type": "Point", "coordinates": [ 127.036296, 37.590508 ] } },
{ "type": "Feature", "properties": { "station_id": "ST024", "station_name": "고속터미널", "SWST_NM": "고속터미널", "hoseon": "3호선, 7호선, 9호선", "longitude": 127.00479567041232, "latitude": 37.504746000439802 }, "geometry": { "type": "Point", "coordinates": [ 127.004795670412321, 37.504746000439802 ] } },
{ "type": "Feature", "properties": { "station_id": "ST025", "station_name": "공덕", "SWST_NM": "공덕", "hoseon": "5호선, 6호선, 경의중앙선, 공항철도", "longitude": 126.95179325300515, "latitude": 37.543278000410901 }, "geometry": { "type": "Point", "coordinates": [ 126.95179325300515, 37.543278000410901 ] } },
{ "type": "Feature", "properties": { "station_id": "ST026", "station_name": "공릉(서울과학기술대)", "SWST_NM": "공릉(서울과학기술대)", "hoseon": "7호선", "longitude": 127.072896, "latitude": 37.625742 }, "geometry": { "type": "Point", "coordinates": [ 127.072896, 37.625742 ] } },
{ "type": "Feature", "properties": { "station_id": "ST027", "station_name": "공항시장", "SWST_NM": "공항시장", "hoseon": "9호선", "longitude": 126.810678, "latitude": 37.563726 }, "geometry": { "type": "Point", "coordinates": [ 126.810678, 37.563726 ] } },
{ "type": "Feature", "properties": { "station_id": "ST028", "station_name": "관악산(서울대)", "SWST_NM": "관악산(서울대)", "hoseon": "신림선", "longitude": 126.9450639, "latitude": 37.4691018 }, "geometry": { "type": "Point", "coordinates": [ 126.9450639, 37.4691018 ] } },
{ "type": "Feature", "properties": { "station_id": "ST029", "station_name": "광나루(장신대)", "SWST_NM": "광나루(장신대)", "hoseon": "5호선", "longitude": 127.10357, "latitude": 37.545303 }, "geometry": { "type": "Point", "coordinates": [ 127.10357, 37.545303 ] } },
{ "type": "Feature", "properties": { "station_id": "ST030", "station_name": "광운대", "SWST_NM": "광운대", "hoseon": "1호선", "longitude": 127.061835, "latitude": 37.623632 }, "geometry": { "type": "Point", "coordinates": [ 127.061835, 37.623632 ] } },
{ "type": "Feature", "properties": { "station_id": "ST031", "station_name": "광화문(세종문화회관)", "SWST_NM": "광화문(세종문화회관)", "hoseon": "5호선", "longitude": 126.97717, "latitude": 37.571525 }, "geometry": { "type": "Point", "coordinates": [ 126.97717, 37.571525 ] } },
{ "type": "Feature", "properties": { "station_id": "ST032", "station_name": "광흥창(서강)", "SWST_NM": "광흥창(서강)", "hoseon": "6호선", "longitude": 126.931993, "latitude": 37.547456 }, "geometry": { "type": "Point", "coordinates": [ 126.931993, 37.547456 ] } },
{ "type": "Feature", "properties": { "station_id": "ST033", "station_name": "교대(법원.검찰청)", "SWST_NM": "교대(법원.검찰청)", "hoseon": "2호선, 3호선", "longitude": 127.0142264972512, "latitude": 37.493493000840374 }, "geometry": { "type": "Point", "coordinates": [ 127.014226497251201, 37.493493000840374 ] } },
{ "type": "Feature", "properties": { "station_id": "ST034", "station_name": "구로", "SWST_NM": "구로", "hoseon": "1호선", "longitude": 126.881966, "latitude": 37.503039 }, "geometry": { "type": "Point", "coordinates": [ 126.881966, 37.503039 ] } },
{ "type": "Feature", "properties": { "station_id": "ST035", "station_name": "구로디지털단지", "SWST_NM": "구로디지털단지", "hoseon": "2호선", "longitude": 126.901401, "latitude": 37.485266 }, "geometry": { "type": "Point", "coordinates": [ 126.901401, 37.485266 ] } },
{ "type": "Feature", "properties": { "station_id": "ST036", "station_name": "구룡", "SWST_NM": "구룡", "hoseon": "수인분당선", "longitude": 127.058856, "latitude": 37.486839 }, "geometry": { "type": "Point", "coordinates": [ 127.058856, 37.486839 ] } },
{ "type": "Feature", "properties": { "station_id": "ST037", "station_name": "구반포", "SWST_NM": "구반포", "hoseon": "9호선", "longitude": 126.987332, "latitude": 37.501364 }, "geometry": { "type": "Point", "coordinates": [ 126.987332, 37.501364 ] } },
{ "type": "Feature", "properties": { "station_id": "ST038", "station_name": "구산", "SWST_NM": "구산", "hoseon": "6호선", "longitude": 126.91727, "latitude": 37.611377 }, "geometry": { "type": "Point", "coordinates": [ 126.91727, 37.611377 ] } },
{ "type": "Feature", "properties": { "station_id": "ST039", "station_name": "구의(광진구청)", "SWST_NM": "구의(광진구청)", "hoseon": "2호선", "longitude": 127.085916, "latitude": 37.537077 }, "geometry": { "type": "Point", "coordinates": [ 127.085916, 37.537077 ] } },
{ "type": "Feature", "properties": { "station_id": "ST040", "station_name": "구일", "SWST_NM": "구일", "hoseon": "1호선", "longitude": 126.870793, "latitude": 37.496756 }, "geometry": { "type": "Point", "coordinates": [ 126.870793, 37.496756 ] } },
{ "type": "Feature", "properties": { "station_id": "ST041", "station_name": "구파발", "SWST_NM": "구파발", "hoseon": "3호선", "longitude": 126.918821, "latitude": 37.636763 }, "geometry": { "type": "Point", "coordinates": [ 126.918821, 37.636763 ] } },
{ "type": "Feature", "properties": { "station_id": "ST042", "station_name": "국회의사당", "SWST_NM": "국회의사당", "hoseon": "9호선", "longitude": 126.917874, "latitude": 37.528105 }, "geometry": { "type": "Point", "coordinates": [ 126.917874, 37.528105 ] } },
{ "type": "Feature", "properties": { "station_id": "ST043", "station_name": "군자(능동)", "SWST_NM": "군자(능동)", "hoseon": "5호선, 7호선", "longitude": 127.07945749984749, "latitude": 37.556992500061419 }, "geometry": { "type": "Point", "coordinates": [ 127.079457499847493, 37.556992500061419 ] } },
{ "type": "Feature", "properties": { "station_id": "ST044", "station_name": "굽은다리(강동구민회관앞)", "SWST_NM": "굽은다리(강동구민회관앞)", "hoseon": "5호선", "longitude": 127.142853, "latitude": 37.545477 }, "geometry": { "type": "Point", "coordinates": [ 127.142853, 37.545477 ] } },
{ "type": "Feature", "properties": { "station_id": "ST045", "station_name": "금천구청", "SWST_NM": "금천구청", "hoseon": "1호선", "longitude": 126.89398, "latitude": 37.455626 }, "geometry": { "type": "Point", "coordinates": [ 126.89398, 37.455626 ] } },
{ "type": "Feature", "properties": { "station_id": "ST046", "station_name": "금호", "SWST_NM": "금호", "hoseon": "3호선", "longitude": 127.015872, "latitude": 37.548034 }, "geometry": { "type": "Point", "coordinates": [ 127.015872, 37.548034 ] } },
{ "type": "Feature", "properties": { "station_id": "ST047", "station_name": "길동", "SWST_NM": "길동", "hoseon": "5호선", "longitude": 127.140004, "latitude": 37.537801 }, "geometry": { "type": "Point", "coordinates": [ 127.140004, 37.537801 ] } },
{ "type": "Feature", "properties": { "station_id": "ST048", "station_name": "길음", "SWST_NM": "길음", "hoseon": "4호선", "longitude": 127.025053, "latitude": 37.603407 }, "geometry": { "type": "Point", "coordinates": [ 127.025053, 37.603407 ] } },
{ "type": "Feature", "properties": { "station_id": "ST049", "station_name": "김포공항", "SWST_NM": "김포공항", "hoseon": "5호선, 9호선, 공항철도", "longitude": 126.80226320265842, "latitude": 37.562040403922808 }, "geometry": { "type": "Point", "coordinates": [ 126.802263202658423, 37.562040403922808 ] } },
{ "type": "Feature", "properties": { "station_id": "ST050", "station_name": "까치산", "SWST_NM": "까치산", "hoseon": "3호선", "longitude": 126.846683, "latitude": 37.531768 }, "geometry": { "type": "Point", "coordinates": [ 126.846683, 37.531768 ] } },
{ "type": "Feature", "properties": { "station_id": "ST051", "station_name": "낙성대", "SWST_NM": "낙성대", "hoseon": "2호선", "longitude": 126.963693, "latitude": 37.47693 }, "geometry": { "type": "Point", "coordinates": [ 126.963693, 37.47693 ] } },
{ "type": "Feature", "properties": { "station_id": "ST052", "station_name": "남구로", "SWST_NM": "남구로", "hoseon": "7호선", "longitude": 126.887249, "latitude": 37.486056 }, "geometry": { "type": "Point", "coordinates": [ 126.887249, 37.486056 ] } },
{ "type": "Feature", "properties": { "station_id": "ST053", "station_name": "남부터미널(예술의전당)", "SWST_NM": "남부터미널(예술의전당)", "hoseon": "3호선", "longitude": 127.016189, "latitude": 37.485013 }, "geometry": { "type": "Point", "coordinates": [ 127.016189, 37.485013 ] } },
{ "type": "Feature", "properties": { "station_id": "ST054", "station_name": "남성", "SWST_NM": "남성", "hoseon": "7호선", "longitude": 126.971251, "latitude": 37.484596 }, "geometry": { "type": "Point", "coordinates": [ 126.971251, 37.484596 ] } },
{ "type": "Feature", "properties": { "station_id": "ST055", "station_name": "남영", "SWST_NM": "남영", "hoseon": "1호선", "longitude": 126.9713, "latitude": 37.541021 }, "geometry": { "type": "Point", "coordinates": [ 126.9713, 37.541021 ] } },
{ "type": "Feature", "properties": { "station_id": "ST056", "station_name": "남태령", "SWST_NM": "남태령", "hoseon": "4호선", "longitude": 126.989134, "latitude": 37.463873 }, "geometry": { "type": "Point", "coordinates": [ 126.989134, 37.463873 ] } },
{ "type": "Feature", "properties": { "station_id": "ST057", "station_name": "내방", "SWST_NM": "내방", "hoseon": "7호선", "longitude": 126.993513, "latitude": 37.487618 }, "geometry": { "type": "Point", "coordinates": [ 126.993513, 37.487618 ] } },
{ "type": "Feature", "properties": { "station_id": "ST058", "station_name": "노들", "SWST_NM": "노들", "hoseon": "9호선", "longitude": 126.953222, "latitude": 37.512887 }, "geometry": { "type": "Point", "coordinates": [ 126.953222, 37.512887 ] } },
{ "type": "Feature", "properties": { "station_id": "ST059", "station_name": "노량진", "SWST_NM": "노량진", "hoseon": "1호선, 9호선", "longitude": 126.9418574964991, "latitude": 37.513841503081501 }, "geometry": { "type": "Point", "coordinates": [ 126.941857496499097, 37.513841503081501 ] } },
{ "type": "Feature", "properties": { "station_id": "ST060", "station_name": "노원", "SWST_NM": "노원", "hoseon": "4호선, 7호선", "longitude": 127.06186898647748, "latitude": 37.655553008446489 }, "geometry": { "type": "Point", "coordinates": [ 127.061868986477478, 37.655553008446489 ] } },
{ "type": "Feature", "properties": { "station_id": "ST061", "station_name": "녹번", "SWST_NM": "녹번", "hoseon": "3호선", "longitude": 126.935756, "latitude": 37.600927 }, "geometry": { "type": "Point", "coordinates": [ 126.935756, 37.600927 ] } },
{ "type": "Feature", "properties": { "station_id": "ST062", "station_name": "녹사평(용산구청)", "SWST_NM": "녹사평(용산구청)", "hoseon": "6호선", "longitude": 126.986695, "latitude": 37.534675 }, "geometry": { "type": "Point", "coordinates": [ 126.986695, 37.534675 ] } },
{ "type": "Feature", "properties": { "station_id": "ST063", "station_name": "녹천", "SWST_NM": "녹천", "hoseon": "1호선", "longitude": 127.051269, "latitude": 37.644799 }, "geometry": { "type": "Point", "coordinates": [ 127.051269, 37.644799 ] } },
{ "type": "Feature", "properties": { "station_id": "ST064", "station_name": "논현", "SWST_NM": "논현", "hoseon": "7호선, 신분당선", "longitude": 127.021415, "latitude": 37.511093 }, "geometry": { "type": "Point", "coordinates": [ 127.021415, 37.511093 ] } },
{ "type": "Feature", "properties": { "station_id": "ST065", "station_name": "답십리", "SWST_NM": "답십리", "hoseon": "5호선", "longitude": 127.052704, "latitude": 37.566747 }, "geometry": { "type": "Point", "coordinates": [ 127.052704, 37.566747 ] } },
{ "type": "Feature", "properties": { "station_id": "ST066", "station_name": "당고개", "SWST_NM": "당고개", "hoseon": "4호선", "longitude": 127.079066, "latitude": 37.670272 }, "geometry": { "type": "Point", "coordinates": [ 127.079066, 37.670272 ] } },
{ "type": "Feature", "properties": { "station_id": "ST067", "station_name": "당곡", "SWST_NM": "당곡", "hoseon": "신림선", "longitude": 126.9275133, "latitude": 37.4902998 }, "geometry": { "type": "Point", "coordinates": [ 126.9275133, 37.4902998 ] } },
{ "type": "Feature", "properties": { "station_id": "ST068", "station_name": "당산", "SWST_NM": "당산", "hoseon": "2호선, 9호선", "longitude": 126.90278800022465, "latitude": 37.53417600005249 }, "geometry": { "type": "Point", "coordinates": [ 126.902788000224646, 37.53417600005249 ] } },
{ "type": "Feature", "properties": { "station_id": "ST069", "station_name": "대림(구로구청)", "SWST_NM": "대림(구로구청)", "hoseon": "2호선, 7호선", "longitude": 126.89600350163158, "latitude": 37.493128004862697 }, "geometry": { "type": "Point", "coordinates": [ 126.896003501631583, 37.493128004862697 ] } },
{ "type": "Feature", "properties": { "station_id": "ST070", "station_name": "대모산입구", "SWST_NM": "대모산입구", "hoseon": "수인분당선", "longitude": 127.07272, "latitude": 37.491373 }, "geometry": { "type": "Point", "coordinates": [ 127.07272, 37.491373 ] } },
{ "type": "Feature", "properties": { "station_id": "ST071", "station_name": "대방", "SWST_NM": "대방", "hoseon": "1호선, 신림선", "longitude": 126.92605424992031, "latitude": 37.513323950454662 }, "geometry": { "type": "Point", "coordinates": [ 126.926054249920313, 37.513323950454662 ] } },
{ "type": "Feature", "properties": { "station_id": "ST072", "station_name": "대청", "SWST_NM": "대청", "hoseon": "3호선", "longitude": 127.079532, "latitude": 37.493514 }, "geometry": { "type": "Point", "coordinates": [ 127.079532, 37.493514 ] } },
{ "type": "Feature", "properties": { "station_id": "ST073", "station_name": "대치", "SWST_NM": "대치", "hoseon": "3호선", "longitude": 127.063642, "latitude": 37.494612 }, "geometry": { "type": "Point", "coordinates": [ 127.063642, 37.494612 ] } },
{ "type": "Feature", "properties": { "station_id": "ST074", "station_name": "대흥(서강대앞)", "SWST_NM": "대흥(서강대앞)", "hoseon": "6호선", "longitude": 126.942069, "latitude": 37.547771 }, "geometry": { "type": "Point", "coordinates": [ 126.942069, 37.547771 ] } },
{ "type": "Feature", "properties": { "station_id": "ST075", "station_name": "도곡", "SWST_NM": "도곡", "hoseon": "3호선, 수인분당선", "longitude": 127.05531900026764, "latitude": 37.491073000076582 }, "geometry": { "type": "Point", "coordinates": [ 127.055319000267644, 37.491073000076582 ] } },
{ "type": "Feature", "properties": { "station_id": "ST076", "station_name": "도림천", "SWST_NM": "도림천", "hoseon": "2호선", "longitude": 126.882768, "latitude": 37.514287 }, "geometry": { "type": "Point", "coordinates": [ 126.882768, 37.514287 ] } },
{ "type": "Feature", "properties": { "station_id": "ST077", "station_name": "도봉", "SWST_NM": "도봉", "hoseon": "1호선", "longitude": 127.045595, "latitude": 37.679563 }, "geometry": { "type": "Point", "coordinates": [ 127.045595, 37.679563 ] } },
{ "type": "Feature", "properties": { "station_id": "ST078", "station_name": "도봉산", "SWST_NM": "도봉산", "hoseon": "7호선", "longitude": 127.04627900045253, "latitude": 37.68938750022582 }, "geometry": { "type": "Point", "coordinates": [ 127.046279000452529, 37.68938750022582 ] } },
{ "type": "Feature", "properties": { "station_id": "ST079", "station_name": "독립문", "SWST_NM": "독립문", "hoseon": "3호선", "longitude": 126.957748, "latitude": 37.574571 }, "geometry": { "type": "Point", "coordinates": [ 126.957748, 37.574571 ] } },
{ "type": "Feature", "properties": { "station_id": "ST080", "station_name": "독바위", "SWST_NM": "독바위", "hoseon": "6호선", "longitude": 126.933031, "latitude": 37.618456 }, "geometry": { "type": "Point", "coordinates": [ 126.933031, 37.618456 ] } },
{ "type": "Feature", "properties": { "station_id": "ST081", "station_name": "독산", "SWST_NM": "독산", "hoseon": "1호선", "longitude": 126.889249, "latitude": 37.466613 }, "geometry": { "type": "Point", "coordinates": [ 126.889249, 37.466613 ] } },
{ "type": "Feature", "properties": { "station_id": "ST082", "station_name": "돌곶이", "SWST_NM": "돌곶이", "hoseon": "6호선", "longitude": 127.056431, "latitude": 37.610537 }, "geometry": { "type": "Point", "coordinates": [ 127.056431, 37.610537 ] } },
{ "type": "Feature", "properties": { "station_id": "ST083", "station_name": "동대문", "SWST_NM": "동대문", "hoseon": "1호선, 4호선", "longitude": 127.01010849584308, "latitude": 37.571308502871005 }, "geometry": { "type": "Point", "coordinates": [ 127.010108495843085, 37.571308502871005 ] } },
{ "type": "Feature", "properties": { "station_id": "ST084", "station_name": "동대문역사문화공원", "SWST_NM": "동대문역사문화공원", "hoseon": "2호선, 4호선, 5호선", "longitude": 127.00743065886368, "latitude": 37.56513701011886 }, "geometry": { "type": "Point", "coordinates": [ 127.007430658863683, 37.56513701011886 ] } },
{ "type": "Feature", "properties": { "station_id": "ST085", "station_name": "동대입구", "SWST_NM": "동대입구", "hoseon": "3호선", "longitude": 127.005602, "latitude": 37.559052 }, "geometry": { "type": "Point", "coordinates": [ 127.005602, 37.559052 ] } },
{ "type": "Feature", "properties": { "station_id": "ST086", "station_name": "동묘앞", "SWST_NM": "동묘앞", "hoseon": "1호선, 6호선", "longitude": 127.01606649746199, "latitude": 37.572738000742653 }, "geometry": { "type": "Point", "coordinates": [ 127.016066497461992, 37.572738000742653 ] } },
{ "type": "Feature", "properties": { "station_id": "ST087", "station_name": "동작(현충원)", "SWST_NM": "동작(현충원)", "hoseon": "4호선, 9호선", "longitude": 126.9792500001878, "latitude": 37.502865005093675 }, "geometry": { "type": "Point", "coordinates": [ 126.979250000187804, 37.502865005093675 ] } },
{ "type": "Feature", "properties": { "station_id": "ST088", "station_name": "둔촌동", "SWST_NM": "둔촌동", "hoseon": "5호선", "longitude": 127.136248, "latitude": 37.527788 }, "geometry": { "type": "Point", "coordinates": [ 127.136248, 37.527788 ] } },
{ "type": "Feature", "properties": { "station_id": "ST089", "station_name": "둔촌오륜", "SWST_NM": "둔촌오륜", "hoseon": "9호선", "longitude": 127.137989, "latitude": 37.519683 }, "geometry": { "type": "Point", "coordinates": [ 127.137989, 37.519683 ] } },
{ "type": "Feature", "properties": { "station_id": "ST090", "station_name": "등촌", "SWST_NM": "등촌", "hoseon": "9호선", "longitude": 126.865689, "latitude": 37.550632 }, "geometry": { "type": "Point", "coordinates": [ 126.865689, 37.550632 ] } },
{ "type": "Feature", "properties": { "station_id": "ST091", "station_name": "디지털미디어시티", "SWST_NM": "디지털미디어시티", "hoseon": "6호선, 경의중앙선, 공항철도", "longitude": 126.90015100399435, "latitude": 37.576847005689338 }, "geometry": { "type": "Point", "coordinates": [ 126.900151003994353, 37.576847005689338 ] } },
{ "type": "Feature", "properties": { "station_id": "ST092", "station_name": "뚝섬", "SWST_NM": "뚝섬", "hoseon": "2호선", "longitude": 127.047367, "latitude": 37.547184 }, "geometry": { "type": "Point", "coordinates": [ 127.047367, 37.547184 ] } },
{ "type": "Feature", "properties": { "station_id": "ST093", "station_name": "뚝섬유원지", "SWST_NM": "뚝섬유원지", "hoseon": "7호선", "longitude": 127.066704, "latitude": 37.53154 }, "geometry": { "type": "Point", "coordinates": [ 127.066704, 37.53154 ] } },
{ "type": "Feature", "properties": { "station_id": "ST094", "station_name": "마곡", "SWST_NM": "마곡", "hoseon": "5호선", "longitude": 126.825448, "latitude": 37.560183 }, "geometry": { "type": "Point", "coordinates": [ 126.825448, 37.560183 ] } },
{ "type": "Feature", "properties": { "station_id": "ST095", "station_name": "마곡나루", "SWST_NM": "마곡나루", "hoseon": "9호선, 공항철도", "longitude": 126.82734400029061, "latitude": 37.566160500037952 }, "geometry": { "type": "Point", "coordinates": [ 126.827344000290609, 37.566160500037952 ] } },
{ "type": "Feature", "properties": { "station_id": "ST096", "station_name": "마들", "SWST_NM": "마들", "hoseon": "7호선", "longitude": 127.057675, "latitude": 37.66494 }, "geometry": { "type": "Point", "coordinates": [ 127.057675, 37.66494 ] } },
{ "type": "Feature", "properties": { "station_id": "ST097", "station_name": "마장", "SWST_NM": "마장", "hoseon": "5호선", "longitude": 127.042973, "latitude": 37.5661 }, "geometry": { "type": "Point", "coordinates": [ 127.042973, 37.5661 ] } },
{ "type": "Feature", "properties": { "station_id": "ST098", "station_name": "마천", "SWST_NM": "마천", "hoseon": "5호선", "longitude": 127.152781, "latitude": 37.49499 }, "geometry": { "type": "Point", "coordinates": [ 127.152781, 37.49499 ] } },
{ "type": "Feature", "properties": { "station_id": "ST099", "station_name": "마포", "SWST_NM": "마포", "hoseon": "3호선", "longitude": 126.945932, "latitude": 37.539574 }, "geometry": { "type": "Point", "coordinates": [ 126.945932, 37.539574 ] } },
{ "type": "Feature", "properties": { "station_id": "ST100", "station_name": "마포구청", "SWST_NM": "마포구청", "hoseon": "6호선", "longitude": 126.903343, "latitude": 37.563515 }, "geometry": { "type": "Point", "coordinates": [ 126.903343, 37.563515 ] } },
{ "type": "Feature", "properties": { "station_id": "ST101", "station_name": "망우", "SWST_NM": "망우", "hoseon": "경의중앙선", "longitude": 127.091909, "latitude": 37.59955 }, "geometry": { "type": "Point", "coordinates": [ 127.091909, 37.59955 ] } },
{ "type": "Feature", "properties": { "station_id": "ST102", "station_name": "망원", "SWST_NM": "망원", "hoseon": "6호선", "longitude": 126.910052, "latitude": 37.556094 }, "geometry": { "type": "Point", "coordinates": [ 126.910052, 37.556094 ] } },
{ "type": "Feature", "properties": { "station_id": "ST103", "station_name": "매봉", "SWST_NM": "매봉", "hoseon": "3호선", "longitude": 127.046769, "latitude": 37.486947 }, "geometry": { "type": "Point", "coordinates": [ 127.046769, 37.486947 ] } },
{ "type": "Feature", "properties": { "station_id": "ST104", "station_name": "먹골", "SWST_NM": "먹골", "hoseon": "7호선", "longitude": 127.077725, "latitude": 37.610637 }, "geometry": { "type": "Point", "coordinates": [ 127.077725, 37.610637 ] } },
{ "type": "Feature", "properties": { "station_id": "ST105", "station_name": "면목", "SWST_NM": "면목", "hoseon": "7호선", "longitude": 127.087503, "latitude": 37.588579 }, "geometry": { "type": "Point", "coordinates": [ 127.087503, 37.588579 ] } },
{ "type": "Feature", "properties": { "station_id": "ST106", "station_name": "명동", "SWST_NM": "명동", "hoseon": "4호선", "longitude": 126.986325, "latitude": 37.560989 }, "geometry": { "type": "Point", "coordinates": [ 126.986325, 37.560989 ] } },
{ "type": "Feature", "properties": { "station_id": "ST107", "station_name": "명일", "SWST_NM": "명일", "hoseon": "5호선", "longitude": 127.143999, "latitude": 37.55137 }, "geometry": { "type": "Point", "coordinates": [ 127.143999, 37.55137 ] } },
{ "type": "Feature", "properties": { "station_id": "ST108", "station_name": "목동", "SWST_NM": "목동", "hoseon": "5호선", "longitude": 126.864931, "latitude": 37.526065 }, "geometry": { "type": "Point", "coordinates": [ 126.864931, 37.526065 ] } },
{ "type": "Feature", "properties": { "station_id": "ST109", "station_name": "몽촌토성(평화의문)", "SWST_NM": "몽촌토성(평화의문)", "hoseon": "8호선", "longitude": 127.112359, "latitude": 37.517409 }, "geometry": { "type": "Point", "coordinates": [ 127.112359, 37.517409 ] } },
{ "type": "Feature", "properties": { "station_id": "ST110", "station_name": "무악재", "SWST_NM": "무악재", "hoseon": "3호선", "longitude": 126.950291, "latitude": 37.582299 }, "geometry": { "type": "Point", "coordinates": [ 126.950291, 37.582299 ] } },
{ "type": "Feature", "properties": { "station_id": "ST111", "station_name": "문래", "SWST_NM": "문래", "hoseon": "2호선", "longitude": 126.89476, "latitude": 37.517933 }, "geometry": { "type": "Point", "coordinates": [ 126.89476, 37.517933 ] } },
{ "type": "Feature", "properties": { "station_id": "ST112", "station_name": "문정", "SWST_NM": "문정", "hoseon": "8호선", "longitude": 127.1225, "latitude": 37.485855 }, "geometry": { "type": "Point", "coordinates": [ 127.1225, 37.485855 ] } },
{ "type": "Feature", "properties": { "station_id": "ST113", "station_name": "미아(서울사이버대학)", "SWST_NM": "미아(서울사이버대학)", "hoseon": "4호선", "longitude": 127.025983, "latitude": 37.62667 }, "geometry": { "type": "Point", "coordinates": [ 127.025983, 37.62667 ] } },
{ "type": "Feature", "properties": { "station_id": "ST114", "station_name": "미아사거리", "SWST_NM": "미아사거리", "hoseon": "4호선", "longitude": 127.030053, "latitude": 37.613292 }, "geometry": { "type": "Point", "coordinates": [ 127.030053, 37.613292 ] } },
{ "type": "Feature", "properties": { "station_id": "ST115", "station_name": "반포", "SWST_NM": "반포", "hoseon": "7호선", "longitude": 127.011727, "latitude": 37.508178 }, "geometry": { "type": "Point", "coordinates": [ 127.011727, 37.508178 ] } },
{ "type": "Feature", "properties": { "station_id": "ST116", "station_name": "발산", "SWST_NM": "발산", "hoseon": "5호선", "longitude": 126.837668, "latitude": 37.558598 }, "geometry": { "type": "Point", "coordinates": [ 126.837668, 37.558598 ] } },
{ "type": "Feature", "properties": { "station_id": "ST117", "station_name": "방배", "SWST_NM": "방배", "hoseon": "2호선", "longitude": 126.997596, "latitude": 37.481426 }, "geometry": { "type": "Point", "coordinates": [ 126.997596, 37.481426 ] } },
{ "type": "Feature", "properties": { "station_id": "ST118", "station_name": "방이", "SWST_NM": "방이", "hoseon": "5호선", "longitude": 127.126133, "latitude": 37.508857 }, "geometry": { "type": "Point", "coordinates": [ 127.126133, 37.508857 ] } },
{ "type": "Feature", "properties": { "station_id": "ST119", "station_name": "방학", "SWST_NM": "방학", "hoseon": "1호선", "longitude": 127.044273, "latitude": 37.667503 }, "geometry": { "type": "Point", "coordinates": [ 127.044273, 37.667503 ] } },
{ "type": "Feature", "properties": { "station_id": "ST120", "station_name": "방화", "SWST_NM": "방화", "hoseon": "5호선", "longitude": 126.812741, "latitude": 37.577446 }, "geometry": { "type": "Point", "coordinates": [ 126.812741, 37.577446 ] } },
{ "type": "Feature", "properties": { "station_id": "ST121", "station_name": "버티고개", "SWST_NM": "버티고개", "hoseon": "6호선", "longitude": 127.007055, "latitude": 37.548013 }, "geometry": { "type": "Point", "coordinates": [ 127.007055, 37.548013 ] } },
{ "type": "Feature", "properties": { "station_id": "ST122", "station_name": "보라매", "SWST_NM": "보라매", "hoseon": "7호선, 신림선", "longitude": 126.92043174999043, "latitude": 37.500072950003485 }, "geometry": { "type": "Point", "coordinates": [ 126.920431749990428, 37.500072950003485 ] } },
{ "type": "Feature", "properties": { "station_id": "ST123", "station_name": "보라매공원", "SWST_NM": "보라매공원", "hoseon": "신림선", "longitude": 126.9180827, "latitude": 37.4955691 }, "geometry": { "type": "Point", "coordinates": [ 126.9180827, 37.4955691 ] } },
{ "type": "Feature", "properties": { "station_id": "ST124", "station_name": "보라매병원", "SWST_NM": "보라매병원", "hoseon": "신림선", "longitude": 126.9234964, "latitude": 37.4929598 }, "geometry": { "type": "Point", "coordinates": [ 126.923496400000019, 37.4929598 ] } },
{ "type": "Feature", "properties": { "station_id": "ST125", "station_name": "보문", "SWST_NM": "보문", "hoseon": "6호선, 우이신설선", "longitude": 127.0193659999988, "latitude": 37.585280000000949 }, "geometry": { "type": "Point", "coordinates": [ 127.019365999998797, 37.585280000000949 ] } },
{ "type": "Feature", "properties": { "station_id": "ST126", "station_name": "복정", "SWST_NM": "복정", "hoseon": "8호선, 수인분당선", "longitude": 127.12669499982339, "latitude": 37.470698500016695 }, "geometry": { "type": "Point", "coordinates": [ 127.126694999823386, 37.470698500016695 ] } },
{ "type": "Feature", "properties": { "station_id": "ST127", "station_name": "봉은사", "SWST_NM": "봉은사", "hoseon": "9호선", "longitude": 127.060245, "latitude": 37.514219 }, "geometry": { "type": "Point", "coordinates": [ 127.060245, 37.514219 ] } },
{ "type": "Feature", "properties": { "station_id": "ST128", "station_name": "봉천", "SWST_NM": "봉천", "hoseon": "2호선", "longitude": 126.941892, "latitude": 37.482362 }, "geometry": { "type": "Point", "coordinates": [ 126.941892, 37.482362 ] } },
{ "type": "Feature", "properties": { "station_id": "ST129", "station_name": "봉화산(서울의료원)", "SWST_NM": "봉화산(서울의료원)", "hoseon": "6호선", "longitude": 127.091401, "latitude": 37.617283 }, "geometry": { "type": "Point", "coordinates": [ 127.091401, 37.617283 ] } },
{ "type": "Feature", "properties": { "station_id": "ST130", "station_name": "북한산보국문", "SWST_NM": "북한산보국문", "hoseon": "우이신설선", "longitude": 127.008251, "latitude": 37.612072 }, "geometry": { "type": "Point", "coordinates": [ 127.008251, 37.612072 ] } },
{ "type": "Feature", "properties": { "station_id": "ST131", "station_name": "북한산우이", "SWST_NM": "북한산우이", "hoseon": "우이신설선", "longitude": 127.012706, "latitude": 37.662909 }, "geometry": { "type": "Point", "coordinates": [ 127.012706, 37.662909 ] } },
{ "type": "Feature", "properties": { "station_id": "ST132", "station_name": "불광", "SWST_NM": "불광", "hoseon": "3호선, 6호선", "longitude": 126.92960500046058, "latitude": 37.61071300019848 }, "geometry": { "type": "Point", "coordinates": [ 126.929605000460583, 37.61071300019848 ] } },
{ "type": "Feature", "properties": { "station_id": "ST133", "station_name": "사가정", "SWST_NM": "사가정", "hoseon": "7호선", "longitude": 127.088478, "latitude": 37.580894 }, "geometry": { "type": "Point", "coordinates": [ 127.088478, 37.580894 ] } },
{ "type": "Feature", "properties": { "station_id": "ST134", "station_name": "사당", "SWST_NM": "사당", "hoseon": "2호선", "longitude": 126.98159749985149, "latitude": 37.476746500015757 }, "geometry": { "type": "Point", "coordinates": [ 126.981597499851489, 37.476746500015757 ] } },
{ "type": "Feature", "properties": { "station_id": "ST135", "station_name": "사평", "SWST_NM": "사평", "hoseon": "9호선", "longitude": 127.015259, "latitude": 37.504206 }, "geometry": { "type": "Point", "coordinates": [ 127.015259, 37.504206 ] } },
{ "type": "Feature", "properties": { "station_id": "ST136", "station_name": "삼각지", "SWST_NM": "삼각지", "hoseon": "4호선, 6호선", "longitude": 126.97331599302646, "latitude": 37.534804502213007 }, "geometry": { "type": "Point", "coordinates": [ 126.973315993026461, 37.534804502213007 ] } },
{ "type": "Feature", "properties": { "station_id": "ST137", "station_name": "삼성", "SWST_NM": "삼성", "hoseon": "2호선", "longitude": 127.06324, "latitude": 37.50887 }, "geometry": { "type": "Point", "coordinates": [ 127.06324, 37.50887 ] } },
{ "type": "Feature", "properties": { "station_id": "ST138", "station_name": "삼성(무역센터)", "SWST_NM": "삼성(무역센터)", "hoseon": "2호선", "longitude": 127.06316, "latitude": 37.508844 }, "geometry": { "type": "Point", "coordinates": [ 127.06316, 37.508844 ] } },
{ "type": "Feature", "properties": { "station_id": "ST139", "station_name": "삼성중앙", "SWST_NM": "삼성중앙", "hoseon": "9호선", "longitude": 127.053282, "latitude": 37.513011 }, "geometry": { "type": "Point", "coordinates": [ 127.053282, 37.513011 ] } },
{ "type": "Feature", "properties": { "station_id": "ST140", "station_name": "삼양", "SWST_NM": "삼양", "hoseon": "우이신설선", "longitude": 127.018106, "latitude": 37.626914 }, "geometry": { "type": "Point", "coordinates": [ 127.018106, 37.626914 ] } },
{ "type": "Feature", "properties": { "station_id": "ST141", "station_name": "삼양사거리", "SWST_NM": "삼양사거리", "hoseon": "우이신설선", "longitude": 127.020473, "latitude": 37.621337 }, "geometry": { "type": "Point", "coordinates": [ 127.020473, 37.621337 ] } },
{ "type": "Feature", "properties": { "station_id": "ST142", "station_name": "삼전", "SWST_NM": "삼전", "hoseon": "9호선", "longitude": 127.088025, "latitude": 37.504738 }, "geometry": { "type": "Point", "coordinates": [ 127.088025, 37.504738 ] } },
{ "type": "Feature", "properties": { "station_id": "ST143", "station_name": "상계", "SWST_NM": "상계", "hoseon": "4호선", "longitude": 127.073572, "latitude": 37.660878 }, "geometry": { "type": "Point", "coordinates": [ 127.073572, 37.660878 ] } },
{ "type": "Feature", "properties": { "station_id": "ST144", "station_name": "상도", "SWST_NM": "상도", "hoseon": "7호선", "longitude": 126.94791, "latitude": 37.502834 }, "geometry": { "type": "Point", "coordinates": [ 126.94791, 37.502834 ] } },
{ "type": "Feature", "properties": { "station_id": "ST145", "station_name": "상봉(시외버스터미널)", "SWST_NM": "상봉(시외버스터미널)", "hoseon": "7호선, 경의중앙선", "longitude": 127.08537800248706, "latitude": 37.596127500506654 }, "geometry": { "type": "Point", "coordinates": [ 127.085378002487062, 37.596127500506654 ] } },
{ "type": "Feature", "properties": { "station_id": "ST146", "station_name": "상수", "SWST_NM": "상수", "hoseon": "6호선", "longitude": 126.922852, "latitude": 37.547716 }, "geometry": { "type": "Point", "coordinates": [ 126.922852, 37.547716 ] } },
{ "type": "Feature", "properties": { "station_id": "ST147", "station_name": "상왕십리", "SWST_NM": "상왕십리", "hoseon": "2호선", "longitude": 127.029354, "latitude": 37.564354 }, "geometry": { "type": "Point", "coordinates": [ 127.029354, 37.564354 ] } },
{ "type": "Feature", "properties": { "station_id": "ST148", "station_name": "상월곡(한국과학기술연구원)", "SWST_NM": "상월곡(한국과학기술연구원)", "hoseon": "6호선", "longitude": 127.048491, "latitude": 37.606377 }, "geometry": { "type": "Point", "coordinates": [ 127.048491, 37.606377 ] } },
{ "type": "Feature", "properties": { "station_id": "ST149", "station_name": "상일동", "SWST_NM": "상일동", "hoseon": "5호선", "longitude": 127.166417, "latitude": 37.556712 }, "geometry": { "type": "Point", "coordinates": [ 127.166417, 37.556712 ] } },
{ "type": "Feature", "properties": { "station_id": "ST150", "station_name": "새절(신사)", "SWST_NM": "새절(신사)", "hoseon": "6호선", "longitude": 126.913629, "latitude": 37.591148 }, "geometry": { "type": "Point", "coordinates": [ 126.913629, 37.591148 ] } },
{ "type": "Feature", "properties": { "station_id": "ST151", "station_name": "샛강", "SWST_NM": "샛강", "hoseon": "9호선, 신림선", "longitude": 126.92891050057568, "latitude": 37.517185451011443 }, "geometry": { "type": "Point", "coordinates": [ 126.928910500575682, 37.517185451011443 ] } },
{ "type": "Feature", "properties": { "station_id": "ST152", "station_name": "서강대", "SWST_NM": "서강대", "hoseon": "경의중앙선", "longitude": 126.935711, "latitude": 37.551881 }, "geometry": { "type": "Point", "coordinates": [ 126.935711, 37.551881 ] } },
{ "type": "Feature", "properties": { "station_id": "ST153", "station_name": "서대문", "SWST_NM": "서대문", "hoseon": "5호선", "longitude": 126.966641, "latitude": 37.565773 }, "geometry": { "type": "Point", "coordinates": [ 126.966641, 37.565773 ] } },
{ "type": "Feature", "properties": { "station_id": "ST154", "station_name": "서빙고", "SWST_NM": "서빙고", "hoseon": "경의중앙선", "longitude": 126.988537, "latitude": 37.519594 }, "geometry": { "type": "Point", "coordinates": [ 126.988537, 37.519594 ] } },
{ "type": "Feature", "properties": { "station_id": "ST155", "station_name": "서울", "SWST_NM": "서울", "hoseon": "공항철도", "longitude": 126.97296, "latitude": 37.55569 }, "geometry": { "type": "Point", "coordinates": [ 126.97296, 37.55569 ] } },
{ "type": "Feature", "properties": { "station_id": "ST156", "station_name": "서울대벤처타운", "SWST_NM": "서울대벤처타운", "hoseon": "신림선", "longitude": 126.9339351, "latitude": 37.4720019 }, "geometry": { "type": "Point", "coordinates": [ 126.9339351, 37.4720019 ] } },
{ "type": "Feature", "properties": { "station_id": "ST157", "station_name": "서울대입구(관악구청)", "SWST_NM": "서울대입구(관악구청)", "hoseon": "2호선", "longitude": 126.952739, "latitude": 37.481247 }, "geometry": { "type": "Point", "coordinates": [ 126.952739, 37.481247 ] } },
{ "type": "Feature", "properties": { "station_id": "ST158", "station_name": "서울숲", "SWST_NM": "서울숲", "hoseon": "수인분당선", "longitude": 127.044707, "latitude": 37.543617 }, "geometry": { "type": "Point", "coordinates": [ 127.044707, 37.543617 ] } },
{ "type": "Feature", "properties": { "station_id": "ST159", "station_name": "서울역", "SWST_NM": "서울역", "hoseon": "1호선, 4호선, 경의중앙선, 공항철도", "longitude": 126.9713247986879, "latitude": 37.554770604240368 }, "geometry": { "type": "Point", "coordinates": [ 126.971324798687903, 37.554770604240368 ] } },
{ "type": "Feature", "properties": { "station_id": "ST160", "station_name": "서울지방병무청", "SWST_NM": "서울지방병무청", "hoseon": "신림선", "longitude": 126.9227083, "latitude": 37.5060464 }, "geometry": { "type": "Point", "coordinates": [ 126.922708300000011, 37.5060464 ] } },
{ "type": "Feature", "properties": { "station_id": "ST161", "station_name": "서원", "SWST_NM": "서원", "hoseon": "신림선", "longitude": 126.9330365, "latitude": 37.4782341 }, "geometry": { "type": "Point", "coordinates": [ 126.9330365, 37.4782341 ] } },
{ "type": "Feature", "properties": { "station_id": "ST162", "station_name": "서초", "SWST_NM": "서초", "hoseon": "2호선", "longitude": 127.007917, "latitude": 37.491897 }, "geometry": { "type": "Point", "coordinates": [ 127.007917, 37.491897 ] } },
{ "type": "Feature", "properties": { "station_id": "ST163", "station_name": "석계", "SWST_NM": "석계", "hoseon": "1호선, 6호선", "longitude": 127.06576450038578, "latitude": 37.614702000123827 }, "geometry": { "type": "Point", "coordinates": [ 127.065764500385782, 37.614702000123827 ] } },
{ "type": "Feature", "properties": { "station_id": "ST164", "station_name": "석촌", "SWST_NM": "석촌", "hoseon": "8호선, 9호선", "longitude": 127.10693600024167, "latitude": 37.505382500047993 }, "geometry": { "type": "Point", "coordinates": [ 127.106936000241674, 37.505382500047993 ] } },
{ "type": "Feature", "properties": { "station_id": "ST165", "station_name": "석촌고분", "SWST_NM": "석촌고분", "hoseon": "9호선", "longitude": 127.097033, "latitude": 37.502558 }, "geometry": { "type": "Point", "coordinates": [ 127.097033, 37.502558 ] } },
{ "type": "Feature", "properties": { "station_id": "ST166", "station_name": "선릉", "SWST_NM": "선릉", "hoseon": "2호선, 수인분당선", "longitude": 127.04850499885183, "latitude": 37.504571000393739 }, "geometry": { "type": "Point", "coordinates": [ 127.048504998851826, 37.504571000393739 ] } },
{ "type": "Feature", "properties": { "station_id": "ST167", "station_name": "선유도", "SWST_NM": "선유도", "hoseon": "9호선", "longitude": 126.893525, "latitude": 37.53802 }, "geometry": { "type": "Point", "coordinates": [ 126.893525, 37.53802 ] } },
{ "type": "Feature", "properties": { "station_id": "ST168", "station_name": "선정릉", "SWST_NM": "선정릉", "hoseon": "9호선, 수인분당선", "longitude": 127.04383800047019, "latitude": 37.510516000113491 }, "geometry": { "type": "Point", "coordinates": [ 127.043838000470188, 37.510516000113491 ] } },
{ "type": "Feature", "properties": { "station_id": "ST169", "station_name": "성수", "SWST_NM": "성수", "hoseon": "2호선", "longitude": 127.055961, "latitude": 37.544581 }, "geometry": { "type": "Point", "coordinates": [ 127.055961, 37.544581 ] } },
{ "type": "Feature", "properties": { "station_id": "ST170", "station_name": "성신여대입구(돈암)", "SWST_NM": "성신여대입구(돈암)", "hoseon": "4호선", "longitude": 127.01647850003638, "latitude": 37.592539500006396 }, "geometry": { "type": "Point", "coordinates": [ 127.016478500036385, 37.592539500006396 ] } },
{ "type": "Feature", "properties": { "station_id": "ST171", "station_name": "솔밭공원", "SWST_NM": "솔밭공원", "hoseon": "우이신설선", "longitude": 127.013273, "latitude": 37.65603 }, "geometry": { "type": "Point", "coordinates": [ 127.013273, 37.65603 ] } },
{ "type": "Feature", "properties": { "station_id": "ST172", "station_name": "솔샘", "SWST_NM": "솔샘", "hoseon": "우이신설선", "longitude": 127.013626, "latitude": 37.620238 }, "geometry": { "type": "Point", "coordinates": [ 127.013626, 37.620238 ] } },
{ "type": "Feature", "properties": { "station_id": "ST173", "station_name": "송정", "SWST_NM": "송정", "hoseon": "5호선", "longitude": 126.811973, "latitude": 37.561184 }, "geometry": { "type": "Point", "coordinates": [ 126.811973, 37.561184 ] } },
{ "type": "Feature", "properties": { "station_id": "ST174", "station_name": "송파", "SWST_NM": "송파", "hoseon": "8호선", "longitude": 127.112183, "latitude": 37.499703 }, "geometry": { "type": "Point", "coordinates": [ 127.112183, 37.499703 ] } },
{ "type": "Feature", "properties": { "station_id": "ST175", "station_name": "송파나루", "SWST_NM": "송파나루", "hoseon": "9호선", "longitude": 127.112216, "latitude": 37.510372 }, "geometry": { "type": "Point", "coordinates": [ 127.112216, 37.510372 ] } },
{ "type": "Feature", "properties": { "station_id": "ST176", "station_name": "수락산", "SWST_NM": "수락산", "hoseon": "7호선", "longitude": 127.055315, "latitude": 37.67785 }, "geometry": { "type": "Point", "coordinates": [ 127.055315, 37.67785 ] } },
{ "type": "Feature", "properties": { "station_id": "ST177", "station_name": "수색", "SWST_NM": "수색", "hoseon": "경의중앙선", "longitude": 126.895611, "latitude": 37.580842 }, "geometry": { "type": "Point", "coordinates": [ 126.895611, 37.580842 ] } },
{ "type": "Feature", "properties": { "station_id": "ST178", "station_name": "수서", "SWST_NM": "수서", "hoseon": "3호선, 수인분당선", "longitude": 127.10164633326086, "latitude": 37.487073333523249 }, "geometry": { "type": "Point", "coordinates": [ 127.101646333260859, 37.487073333523249 ] } },
{ "type": "Feature", "properties": { "station_id": "ST179", "station_name": "수유(강북구청)", "SWST_NM": "수유(강북구청)", "hoseon": "4호선", "longitude": 127.025732, "latitude": 37.638052 }, "geometry": { "type": "Point", "coordinates": [ 127.025732, 37.638052 ] } },
{ "type": "Feature", "properties": { "station_id": "ST180", "station_name": "숙대입구(갈월)", "SWST_NM": "숙대입구(갈월)", "hoseon": "4호선", "longitude": 126.972106, "latitude": 37.54456 }, "geometry": { "type": "Point", "coordinates": [ 126.972106, 37.54456 ] } },
{ "type": "Feature", "properties": { "station_id": "ST181", "station_name": "숭실대입구(살피재)", "SWST_NM": "숭실대입구(살피재)", "hoseon": "7호선", "longitude": 126.953822, "latitude": 37.496029 }, "geometry": { "type": "Point", "coordinates": [ 126.953822, 37.496029 ] } },
{ "type": "Feature", "properties": { "station_id": "ST182", "station_name": "시청", "SWST_NM": "시청", "hoseon": "1호선", "longitude": 126.97624948808242, "latitude": 37.564651503069541 }, "geometry": { "type": "Point", "coordinates": [ 126.976249488082416, 37.564651503069541 ] } },
{ "type": "Feature", "properties": { "station_id": "ST183", "station_name": "신금호", "SWST_NM": "신금호", "hoseon": "5호선", "longitude": 127.020331, "latitude": 37.554548 }, "geometry": { "type": "Point", "coordinates": [ 127.020331, 37.554548 ] } },
{ "type": "Feature", "properties": { "station_id": "ST184", "station_name": "신길", "SWST_NM": "신길", "hoseon": "1호선, 5호선", "longitude": 126.91635200766559, "latitude": 37.517242509712069 }, "geometry": { "type": "Point", "coordinates": [ 126.916352007665594, 37.517242509712069 ] } },
{ "type": "Feature", "properties": { "station_id": "ST185", "station_name": "신내", "SWST_NM": "신내", "hoseon": "6호선, 경의중앙선", "longitude": 127.10272450095037, "latitude": 37.61303050103222 }, "geometry": { "type": "Point", "coordinates": [ 127.102724500950373, 37.61303050103222 ] } },
{ "type": "Feature", "properties": { "station_id": "ST186", "station_name": "신논현", "SWST_NM": "신논현", "hoseon": "9호선, 신분당선", "longitude": 127.02506, "latitude": 37.504598 }, "geometry": { "type": "Point", "coordinates": [ 127.02506, 37.504598 ] } },
{ "type": "Feature", "properties": { "station_id": "ST187", "station_name": "신답", "SWST_NM": "신답", "hoseon": "2호선", "longitude": 127.046481, "latitude": 37.57004 }, "geometry": { "type": "Point", "coordinates": [ 127.046481, 37.57004 ] } },
{ "type": "Feature", "properties": { "station_id": "ST188", "station_name": "신당", "SWST_NM": "신당", "hoseon": "2호선, 6호선", "longitude": 127.01788000596217, "latitude": 37.565897012737956 }, "geometry": { "type": "Point", "coordinates": [ 127.017880005962169, 37.565897012737956 ] } },
{ "type": "Feature", "properties": { "station_id": "ST189", "station_name": "신대방", "SWST_NM": "신대방", "hoseon": "2호선", "longitude": 126.913149, "latitude": 37.487462 }, "geometry": { "type": "Point", "coordinates": [ 126.913149, 37.487462 ] } },
{ "type": "Feature", "properties": { "station_id": "ST190", "station_name": "신대방삼거리", "SWST_NM": "신대방삼거리", "hoseon": "7호선", "longitude": 126.928276, "latitude": 37.499701 }, "geometry": { "type": "Point", "coordinates": [ 126.928276, 37.499701 ] } },
{ "type": "Feature", "properties": { "station_id": "ST191", "station_name": "신도림", "SWST_NM": "신도림", "hoseon": "1호선, 2호선", "longitude": 126.89111400003493, "latitude": 37.508874000004525 }, "geometry": { "type": "Point", "coordinates": [ 126.891114000034932, 37.508874000004525 ] } },
{ "type": "Feature", "properties": { "station_id": "ST192", "station_name": "신림", "SWST_NM": "신림", "hoseon": "2호선, 신림선", "longitude": 126.92966545024099, "latitude": 37.484563800021796 }, "geometry": { "type": "Point", "coordinates": [ 126.929665450240989, 37.484563800021796 ] } },
{ "type": "Feature", "properties": { "station_id": "ST193", "station_name": "신목동", "SWST_NM": "신목동", "hoseon": "9호선", "longitude": 126.88308, "latitude": 37.544277 }, "geometry": { "type": "Point", "coordinates": [ 126.88308, 37.544277 ] } },
{ "type": "Feature", "properties": { "station_id": "ST194", "station_name": "신반포", "SWST_NM": "신반포", "hoseon": "9호선", "longitude": 126.995925, "latitude": 37.503415 }, "geometry": { "type": "Point", "coordinates": [ 126.995925, 37.503415 ] } },
{ "type": "Feature", "properties": { "station_id": "ST195", "station_name": "신방화", "SWST_NM": "신방화", "hoseon": "9호선", "longitude": 126.816601, "latitude": 37.567532 }, "geometry": { "type": "Point", "coordinates": [ 126.816601, 37.567532 ] } },
{ "type": "Feature", "properties": { "station_id": "ST196", "station_name": "신사", "SWST_NM": "신사", "hoseon": "3호선, 신분당선", "longitude": 127.020114, "latitude": 37.516334 }, "geometry": { "type": "Point", "coordinates": [ 127.020114, 37.516334 ] } },
{ "type": "Feature", "properties": { "station_id": "ST197", "station_name": "신설동", "SWST_NM": "신설동", "hoseon": "1호선, 2호선, 우이신설선", "longitude": 127.0242693373913, "latitude": 37.575630002329497 }, "geometry": { "type": "Point", "coordinates": [ 127.024269337391303, 37.575630002329497 ] } },
{ "type": "Feature", "properties": { "station_id": "ST198", "station_name": "신용산", "SWST_NM": "신용산", "hoseon": "4호선", "longitude": 126.967894, "latitude": 37.52917 }, "geometry": { "type": "Point", "coordinates": [ 126.967894, 37.52917 ] } },
{ "type": "Feature", "properties": { "station_id": "ST199", "station_name": "신이문", "SWST_NM": "신이문", "hoseon": "1호선", "longitude": 127.067325, "latitude": 37.601854 }, "geometry": { "type": "Point", "coordinates": [ 127.067325, 37.601854 ] } },
{ "type": "Feature", "properties": { "station_id": "ST200", "station_name": "신정(은행정)", "SWST_NM": "신정(은행정)", "hoseon": "5호선", "longitude": 126.856191, "latitude": 37.524997 }, "geometry": { "type": "Point", "coordinates": [ 126.856191, 37.524997 ] } },
{ "type": "Feature", "properties": { "station_id": "ST201", "station_name": "신정네거리", "SWST_NM": "신정네거리", "hoseon": "2호선", "longitude": 126.852912, "latitude": 37.520074 }, "geometry": { "type": "Point", "coordinates": [ 126.852912, 37.520074 ] } },
{ "type": "Feature", "properties": { "station_id": "ST202", "station_name": "신촌(2호선)", "SWST_NM": "신촌", "hoseon": "2호선", "longitude": 126.936926, "latitude": 37.555131 }, "geometry": { "type": "Point", "coordinates": [ 126.936926, 37.555131 ] } },
{ "type": "Feature", "properties": { "station_id": "ST203", "station_name": "신촌(경의중앙선)", "SWST_NM": "신촌", "hoseon": "경의중앙선", "longitude": 126.942597, "latitude": 37.559733 }, "geometry": { "type": "Point", "coordinates": [ 126.942597, 37.559733 ] } },
{ "type": "Feature", "properties": { "station_id": "ST204", "station_name": "신풍", "SWST_NM": "신풍", "hoseon": "7호선", "longitude": 126.90993, "latitude": 37.50008 }, "geometry": { "type": "Point", "coordinates": [ 126.90993, 37.50008 ] } },
{ "type": "Feature", "properties": { "station_id": "ST205", "station_name": "쌍문", "SWST_NM": "쌍문", "hoseon": "4호선", "longitude": 127.034709, "latitude": 37.648627 }, "geometry": { "type": "Point", "coordinates": [ 127.034709, 37.648627 ] } },
{ "type": "Feature", "properties": { "station_id": "ST206", "station_name": "아차산(어린이대공원후문)", "SWST_NM": "아차산(어린이대공원후문)", "hoseon": "5호선", "longitude": 127.089761, "latitude": 37.551691 }, "geometry": { "type": "Point", "coordinates": [ 127.089761, 37.551691 ] } },
{ "type": "Feature", "properties": { "station_id": "ST207", "station_name": "아현", "SWST_NM": "아현", "hoseon": "2호선", "longitude": 126.956141, "latitude": 37.557345 }, "geometry": { "type": "Point", "coordinates": [ 126.956141, 37.557345 ] } },
{ "type": "Feature", "properties": { "station_id": "ST208", "station_name": "안국", "SWST_NM": "안국", "hoseon": "3호선", "longitude": 126.985443, "latitude": 37.576477 }, "geometry": { "type": "Point", "coordinates": [ 126.985443, 37.576477 ] } },
{ "type": "Feature", "properties": { "station_id": "ST209", "station_name": "안암(고대병원앞)", "SWST_NM": "안암(고대병원앞)", "hoseon": "6호선", "longitude": 127.029005, "latitude": 37.586272 }, "geometry": { "type": "Point", "coordinates": [ 127.029005, 37.586272 ] } },
{ "type": "Feature", "properties": { "station_id": "ST210", "station_name": "암사", "SWST_NM": "암사", "hoseon": "8호선", "longitude": 127.127562, "latitude": 37.55021 }, "geometry": { "type": "Point", "coordinates": [ 127.127562, 37.55021 ] } },
{ "type": "Feature", "properties": { "station_id": "ST211", "station_name": "암사역사공원", "SWST_NM": "암사역사공원", "hoseon": "8호선", "longitude": 127.13702, "latitude": 37.55695 }, "geometry": { "type": "Point", "coordinates": [ 127.13702, 37.55695 ] } },
{ "type": "Feature", "properties": { "station_id": "ST212", "station_name": "압구정", "SWST_NM": "압구정", "hoseon": "3호선", "longitude": 127.028461, "latitude": 37.527072 }, "geometry": { "type": "Point", "coordinates": [ 127.028461, 37.527072 ] } },
{ "type": "Feature", "properties": { "station_id": "ST213", "station_name": "압구정로데오", "SWST_NM": "압구정로데오", "hoseon": "수인분당선", "longitude": 127.040534, "latitude": 37.527381 }, "geometry": { "type": "Point", "coordinates": [ 127.040534, 37.527381 ] } },
{ "type": "Feature", "properties": { "station_id": "ST214", "station_name": "애오개", "SWST_NM": "애오개", "hoseon": "5호선", "longitude": 126.95682, "latitude": 37.553736 }, "geometry": { "type": "Point", "coordinates": [ 126.95682, 37.553736 ] } },
{ "type": "Feature", "properties": { "station_id": "ST215", "station_name": "약수", "SWST_NM": "약수", "hoseon": "3호선, 6호선", "longitude": 127.01044949963064, "latitude": 37.554565000043254 }, "geometry": { "type": "Point", "coordinates": [ 127.010449499630639, 37.554565000043254 ] } },
{ "type": "Feature", "properties": { "station_id": "ST216", "station_name": "양원", "SWST_NM": "양원", "hoseon": "경의중앙선", "longitude": 127.107906, "latitude": 37.606596 }, "geometry": { "type": "Point", "coordinates": [ 127.107906, 37.606596 ] } },
{ "type": "Feature", "properties": { "station_id": "ST217", "station_name": "양재(서초구청)", "SWST_NM": "양재(서초구청)", "hoseon": "3호선, 신분당선", "longitude": 127.03427750167147, "latitude": 37.484143000605343 }, "geometry": { "type": "Point", "coordinates": [ 127.034277501671468, 37.484143000605343 ] } },
{ "type": "Feature", "properties": { "station_id": "ST218", "station_name": "양재시민의숲(매헌)", "SWST_NM": "양재시민의숲(매헌)", "hoseon": "신분당선", "longitude": 127.03842, "latitude": 37.470023 }, "geometry": { "type": "Point", "coordinates": [ 127.03842, 37.470023 ] } },
{ "type": "Feature", "properties": { "station_id": "ST219", "station_name": "양천구청", "SWST_NM": "양천구청", "hoseon": "2호선", "longitude": 126.865819, "latitude": 37.512398 }, "geometry": { "type": "Point", "coordinates": [ 126.865819, 37.512398 ] } },
{ "type": "Feature", "properties": { "station_id": "ST220", "station_name": "양천향교", "SWST_NM": "양천향교", "hoseon": "9호선", "longitude": 126.841333, "latitude": 37.568381 }, "geometry": { "type": "Point", "coordinates": [ 126.841333, 37.568381 ] } },
{ "type": "Feature", "properties": { "station_id": "ST221", "station_name": "양평", "SWST_NM": "양평", "hoseon": "5호선", "longitude": 126.886129, "latitude": 37.525569 }, "geometry": { "type": "Point", "coordinates": [ 126.886129, 37.525569 ] } },
{ "type": "Feature", "properties": { "station_id": "ST222", "station_name": "어린이대공원(세종대)", "SWST_NM": "어린이대공원(세종대)", "hoseon": "7호선", "longitude": 127.074658, "latitude": 37.548014 }, "geometry": { "type": "Point", "coordinates": [ 127.074658, 37.548014 ] } },
{ "type": "Feature", "properties": { "station_id": "ST223", "station_name": "언주", "SWST_NM": "언주", "hoseon": "9호선", "longitude": 127.033868, "latitude": 37.507287 }, "geometry": { "type": "Point", "coordinates": [ 127.033868, 37.507287 ] } },
{ "type": "Feature", "properties": { "station_id": "ST224", "station_name": "여의나루", "SWST_NM": "여의나루", "hoseon": "5호선", "longitude": 126.932901, "latitude": 37.527098 }, "geometry": { "type": "Point", "coordinates": [ 126.932901, 37.527098 ] } },
{ "type": "Feature", "properties": { "station_id": "ST225", "station_name": "여의도", "SWST_NM": "여의도", "hoseon": "5호선, 9호선", "longitude": 126.92419350001398, "latitude": 37.521753500113185 }, "geometry": { "type": "Point", "coordinates": [ 126.924193500013985, 37.521753500113185 ] } },
{ "type": "Feature", "properties": { "station_id": "ST226", "station_name": "역삼", "SWST_NM": "역삼", "hoseon": "2호선", "longitude": 127.036456, "latitude": 37.500622 }, "geometry": { "type": "Point", "coordinates": [ 127.036456, 37.500622 ] } },
{ "type": "Feature", "properties": { "station_id": "ST227", "station_name": "역촌", "SWST_NM": "역촌", "hoseon": "6호선", "longitude": 126.922744, "latitude": 37.606021 }, "geometry": { "type": "Point", "coordinates": [ 126.922744, 37.606021 ] } },
{ "type": "Feature", "properties": { "station_id": "ST228", "station_name": "연신내", "SWST_NM": "연신내", "hoseon": "3호선, 6호선", "longitude": 126.92098766633279, "latitude": 37.618881666998824 }, "geometry": { "type": "Point", "coordinates": [ 126.920987666332792, 37.618881666998824 ] } },
{ "type": "Feature", "properties": { "station_id": "ST229", "station_name": "염창", "SWST_NM": "염창", "hoseon": "9호선", "longitude": 126.874916, "latitude": 37.546936 }, "geometry": { "type": "Point", "coordinates": [ 126.874916, 37.546936 ] } },
{ "type": "Feature", "properties": { "station_id": "ST230", "station_name": "영등포", "SWST_NM": "영등포", "hoseon": "1호선", "longitude": 126.907628, "latitude": 37.515504 }, "geometry": { "type": "Point", "coordinates": [ 126.907628, 37.515504 ] } },
{ "type": "Feature", "properties": { "station_id": "ST231", "station_name": "영등포구청", "SWST_NM": "영등포구청", "hoseon": "2호선, 5호선", "longitude": 126.89581999206243, "latitude": 37.524953002678338 }, "geometry": { "type": "Point", "coordinates": [ 126.895819992062428, 37.524953002678338 ] } },
{ "type": "Feature", "properties": { "station_id": "ST232", "station_name": "영등포시장", "SWST_NM": "영등포시장", "hoseon": "5호선", "longitude": 126.905139, "latitude": 37.522669 }, "geometry": { "type": "Point", "coordinates": [ 126.905139, 37.522669 ] } },
{ "type": "Feature", "properties": { "station_id": "ST233", "station_name": "오금", "SWST_NM": "오금", "hoseon": "3호선", "longitude": 127.12812849990895, "latitude": 37.502093000153891 }, "geometry": { "type": "Point", "coordinates": [ 127.128128499908954, 37.502093000153891 ] } },
{ "type": "Feature", "properties": { "station_id": "ST234", "station_name": "오류동", "SWST_NM": "오류동", "hoseon": "1호선", "longitude": 126.845365, "latitude": 37.494526 }, "geometry": { "type": "Point", "coordinates": [ 126.845365, 37.494526 ] } },
{ "type": "Feature", "properties": { "station_id": "ST235", "station_name": "오목교(목동운동장앞)", "SWST_NM": "오목교(목동운동장앞)", "hoseon": "5호선", "longitude": 126.875181, "latitude": 37.524496 }, "geometry": { "type": "Point", "coordinates": [ 126.875181, 37.524496 ] } },
{ "type": "Feature", "properties": { "station_id": "ST236", "station_name": "옥수", "SWST_NM": "옥수", "hoseon": "3호선, 경의중앙선", "longitude": 127.01797050579924, "latitude": 37.541065002114642 }, "geometry": { "type": "Point", "coordinates": [ 127.017970505799241, 37.541065002114642 ] } },
{ "type": "Feature", "properties": { "station_id": "ST237", "station_name": "온수(성공회대입구)", "SWST_NM": "온수(성공회대입구)", "hoseon": "1호선, 7호선", "longitude": 126.82355449878783, "latitude": 37.492262501194972 }, "geometry": { "type": "Point", "coordinates": [ 126.823554498787828, 37.492262501194972 ] } },
{ "type": "Feature", "properties": { "station_id": "ST238", "station_name": "올림픽공원(한국체대)", "SWST_NM": "올림픽공원(한국체대)", "hoseon": "5호선, 9호선", "longitude": 127.13060550014528, "latitude": 37.516235000426555 }, "geometry": { "type": "Point", "coordinates": [ 127.130605500145279, 37.516235000426555 ] } },
{ "type": "Feature", "properties": { "station_id": "ST239", "station_name": "왕십리(성동구청)", "SWST_NM": "왕십리(성동구청)", "hoseon": "2호선, 5호선", "longitude": 127.03745499870928, "latitude": 37.561635001718898 }, "geometry": { "type": "Point", "coordinates": [ 127.037454998709279, 37.561635001718898 ] } },
{ "type": "Feature", "properties": { "station_id": "ST240", "station_name": "외대앞", "SWST_NM": "외대앞", "hoseon": "1호선", "longitude": 127.063549, "latitude": 37.596073 }, "geometry": { "type": "Point", "coordinates": [ 127.063549, 37.596073 ] } },
{ "type": "Feature", "properties": { "station_id": "ST241", "station_name": "용답", "SWST_NM": "용답", "hoseon": "2호선", "longitude": 127.050899, "latitude": 37.561904 }, "geometry": { "type": "Point", "coordinates": [ 127.050899, 37.561904 ] } },
{ "type": "Feature", "properties": { "station_id": "ST242", "station_name": "용두(동대문구청)", "SWST_NM": "용두(동대문구청)", "hoseon": "2호선", "longitude": 127.038091, "latitude": 37.574028 }, "geometry": { "type": "Point", "coordinates": [ 127.038091, 37.574028 ] } },
{ "type": "Feature", "properties": { "station_id": "ST243", "station_name": "용마산", "SWST_NM": "용마산", "hoseon": "7호선", "longitude": 127.086727, "latitude": 37.573647 }, "geometry": { "type": "Point", "coordinates": [ 127.086727, 37.573647 ] } },
{ "type": "Feature", "properties": { "station_id": "ST244", "station_name": "용산", "SWST_NM": "용산", "hoseon": "1호선", "longitude": 126.964561, "latitude": 37.529849 }, "geometry": { "type": "Point", "coordinates": [ 126.964561, 37.529849 ] } },
{ "type": "Feature", "properties": { "station_id": "ST245", "station_name": "우장산", "SWST_NM": "우장산", "hoseon": "5호선", "longitude": 126.836318, "latitude": 37.548768 }, "geometry": { "type": "Point", "coordinates": [ 126.836318, 37.548768 ] } },
{ "type": "Feature", "properties": { "station_id": "ST246", "station_name": "월계", "SWST_NM": "월계", "hoseon": "1호선", "longitude": 127.058831, "latitude": 37.633212 }, "geometry": { "type": "Point", "coordinates": [ 127.058831, 37.633212 ] } },
{ "type": "Feature", "properties": { "station_id": "ST247", "station_name": "월곡(동덕여대)", "SWST_NM": "월곡(동덕여대)", "hoseon": "6호선", "longitude": 127.041518, "latitude": 37.601948 }, "geometry": { "type": "Point", "coordinates": [ 127.041518, 37.601948 ] } },
{ "type": "Feature", "properties": { "station_id": "ST248", "station_name": "월드컵경기장(성산)", "SWST_NM": "월드컵경기장(성산)", "hoseon": "6호선", "longitude": 126.899298, "latitude": 37.569532 }, "geometry": { "type": "Point", "coordinates": [ 126.899298, 37.569532 ] } },
{ "type": "Feature", "properties": { "station_id": "ST249", "station_name": "을지로3가", "SWST_NM": "을지로3가", "hoseon": "2호선, 3호선", "longitude": 126.99212199895778, "latitude": 37.566489000771298 }, "geometry": { "type": "Point", "coordinates": [ 126.992121998957785, 37.566489000771298 ] } },
{ "type": "Feature", "properties": { "station_id": "ST250", "station_name": "을지로4가", "SWST_NM": "을지로4가", "hoseon": "2호선, 5호선", "longitude": 126.99792449945612, "latitude": 37.566973500061103 }, "geometry": { "type": "Point", "coordinates": [ 126.997924499456118, 37.566973500061103 ] } },
{ "type": "Feature", "properties": { "station_id": "ST251", "station_name": "을지로입구", "SWST_NM": "을지로입구", "hoseon": "2호선", "longitude": 126.982618, "latitude": 37.566014 }, "geometry": { "type": "Point", "coordinates": [ 126.982618, 37.566014 ] } },
{ "type": "Feature", "properties": { "station_id": "ST252", "station_name": "응봉", "SWST_NM": "응봉", "hoseon": "경의중앙선", "longitude": 127.034538, "latitude": 37.549946 }, "geometry": { "type": "Point", "coordinates": [ 127.034538, 37.549946 ] } },
{ "type": "Feature", "properties": { "station_id": "ST253", "station_name": "응암", "SWST_NM": "응암", "hoseon": "6호선", "longitude": 126.915577, "latitude": 37.598605 }, "geometry": { "type": "Point", "coordinates": [ 126.915577, 37.598605 ] } },
{ "type": "Feature", "properties": { "station_id": "ST254", "station_name": "이대", "SWST_NM": "이대", "hoseon": "2호선", "longitude": 126.946013, "latitude": 37.556733 }, "geometry": { "type": "Point", "coordinates": [ 126.946013, 37.556733 ] } },
{ "type": "Feature", "properties": { "station_id": "ST255", "station_name": "이수", "SWST_NM": "이수", "hoseon": "7호선", "longitude": 126.981605, "latitude": 37.485196 }, "geometry": { "type": "Point", "coordinates": [ 126.981605, 37.485196 ] } },
{ "type": "Feature", "properties": { "station_id": "ST256", "station_name": "이촌(국립중앙박물관)", "SWST_NM": "이촌(국립중앙박물관)", "hoseon": "4호선, 경의중앙선", "longitude": 126.97406950058338, "latitude": 37.522361001864283 }, "geometry": { "type": "Point", "coordinates": [ 126.974069500583383, 37.522361001864283 ] } },
{ "type": "Feature", "properties": { "station_id": "ST257", "station_name": "이태원", "SWST_NM": "이태원", "hoseon": "6호선", "longitude": 126.994302, "latitude": 37.534488 }, "geometry": { "type": "Point", "coordinates": [ 126.994302, 37.534488 ] } },
{ "type": "Feature", "properties": { "station_id": "ST258", "station_name": "일원", "SWST_NM": "일원", "hoseon": "3호선", "longitude": 127.08439, "latitude": 37.483681 }, "geometry": { "type": "Point", "coordinates": [ 127.08439, 37.483681 ] } },
{ "type": "Feature", "properties": { "station_id": "ST259", "station_name": "잠실(송파구청)", "SWST_NM": "잠실(송파구청)", "hoseon": "2호선", "longitude": 127.10224848010128, "latitude": 37.513977018554456 }, "geometry": { "type": "Point", "coordinates": [ 127.102248480101281, 37.513977018554456 ] } },
{ "type": "Feature", "properties": { "station_id": "ST260", "station_name": "잠실나루", "SWST_NM": "잠실나루", "hoseon": "2호선", "longitude": 127.10379, "latitude": 37.520733 }, "geometry": { "type": "Point", "coordinates": [ 127.10379, 37.520733 ] } },
{ "type": "Feature", "properties": { "station_id": "ST261", "station_name": "잠실새내", "SWST_NM": "잠실새내", "hoseon": "2호선", "longitude": 127.086162, "latitude": 37.511687 }, "geometry": { "type": "Point", "coordinates": [ 127.086162, 37.511687 ] } },
{ "type": "Feature", "properties": { "station_id": "ST262", "station_name": "잠원", "SWST_NM": "잠원", "hoseon": "3호선", "longitude": 127.01122, "latitude": 37.512759 }, "geometry": { "type": "Point", "coordinates": [ 127.01122, 37.512759 ] } },
{ "type": "Feature", "properties": { "station_id": "ST263", "station_name": "장승배기", "SWST_NM": "장승배기", "hoseon": "7호선", "longitude": 126.93915, "latitude": 37.504898 }, "geometry": { "type": "Point", "coordinates": [ 126.93915, 37.504898 ] } },
{ "type": "Feature", "properties": { "station_id": "ST264", "station_name": "장지", "SWST_NM": "장지", "hoseon": "8호선", "longitude": 127.126191, "latitude": 37.478703 }, "geometry": { "type": "Point", "coordinates": [ 127.126191, 37.478703 ] } },
{ "type": "Feature", "properties": { "station_id": "ST265", "station_name": "장한평", "SWST_NM": "장한평", "hoseon": "5호선", "longitude": 127.064623, "latitude": 37.56144 }, "geometry": { "type": "Point", "coordinates": [ 127.064623, 37.56144 ] } },
{ "type": "Feature", "properties": { "station_id": "ST266", "station_name": "정릉", "SWST_NM": "정릉", "hoseon": "우이신설선", "longitude": 127.013396, "latitude": 37.603133 }, "geometry": { "type": "Point", "coordinates": [ 127.013396, 37.603133 ] } },
{ "type": "Feature", "properties": { "station_id": "ST267", "station_name": "제기동", "SWST_NM": "제기동", "hoseon": "1호선", "longitude": 127.034893, "latitude": 37.578103 }, "geometry": { "type": "Point", "coordinates": [ 127.034893, 37.578103 ] } },
{ "type": "Feature", "properties": { "station_id": "ST268", "station_name": "종각", "SWST_NM": "종각", "hoseon": "1호선", "longitude": 126.982923, "latitude": 37.570161 }, "geometry": { "type": "Point", "coordinates": [ 126.982923, 37.570161 ] } },
{ "type": "Feature", "properties": { "station_id": "ST269", "station_name": "종로3가", "SWST_NM": "종로3가", "hoseon": "1호선, 3호선, 5호선", "longitude": 126.99131434038637, "latitude": 37.571517002225256 }, "geometry": { "type": "Point", "coordinates": [ 126.991314340386367, 37.571517002225256 ] } },
{ "type": "Feature", "properties": { "station_id": "ST270", "station_name": "종로5가", "SWST_NM": "종로5가", "hoseon": "1호선", "longitude": 127.001849, "latitude": 37.570926 }, "geometry": { "type": "Point", "coordinates": [ 127.001849, 37.570926 ] } },
{ "type": "Feature", "properties": { "station_id": "ST271", "station_name": "종합운동장", "SWST_NM": "종합운동장", "hoseon": "2호선, 9호선", "longitude": 127.07498949654712, "latitude": 37.511224007002248 }, "geometry": { "type": "Point", "coordinates": [ 127.074989496547119, 37.511224007002248 ] } },
{ "type": "Feature", "properties": { "station_id": "ST272", "station_name": "중계", "SWST_NM": "중계", "hoseon": "7호선", "longitude": 127.064303, "latitude": 37.644583 }, "geometry": { "type": "Point", "coordinates": [ 127.064303, 37.644583 ] } },
{ "type": "Feature", "properties": { "station_id": "ST273", "station_name": "중곡", "SWST_NM": "중곡", "hoseon": "7호선", "longitude": 127.08432, "latitude": 37.565923 }, "geometry": { "type": "Point", "coordinates": [ 127.08432, 37.565923 ] } },
{ "type": "Feature", "properties": { "station_id": "ST274", "station_name": "중랑", "SWST_NM": "중랑", "hoseon": "경의중앙선", "longitude": 127.076116, "latitude": 37.594917 }, "geometry": { "type": "Point", "coordinates": [ 127.076116, 37.594917 ] } },
{ "type": "Feature", "properties": { "station_id": "ST275", "station_name": "중앙보훈병원", "SWST_NM": "중앙보훈병원", "hoseon": "9호선", "longitude": 127.148739, "latitude": 37.529191 }, "geometry": { "type": "Point", "coordinates": [ 127.148739, 37.529191 ] } },
{ "type": "Feature", "properties": { "station_id": "ST276", "station_name": "중화", "SWST_NM": "중화", "hoseon": "7호선", "longitude": 127.079264, "latitude": 37.602545 }, "geometry": { "type": "Point", "coordinates": [ 127.079264, 37.602545 ] } },
{ "type": "Feature", "properties": { "station_id": "ST277", "station_name": "증미", "SWST_NM": "증미", "hoseon": "9호선", "longitude": 126.861939, "latitude": 37.557402 }, "geometry": { "type": "Point", "coordinates": [ 126.861939, 37.557402 ] } },
{ "type": "Feature", "properties": { "station_id": "ST278", "station_name": "증산(명지대앞)", "SWST_NM": "증산(명지대앞)", "hoseon": "6호선", "longitude": 126.909645, "latitude": 37.583876 }, "geometry": { "type": "Point", "coordinates": [ 126.909645, 37.583876 ] } },
{ "type": "Feature", "properties": { "station_id": "ST279", "station_name": "창동", "SWST_NM": "창동", "hoseon": "1호선, 4호선", "longitude": 127.04754000014476, "latitude": 37.653047500299941 }, "geometry": { "type": "Point", "coordinates": [ 127.047540000144764, 37.653047500299941 ] } },
{ "type": "Feature", "properties": { "station_id": "ST280", "station_name": "창신", "SWST_NM": "창신", "hoseon": "6호선", "longitude": 127.015241, "latitude": 37.579661 }, "geometry": { "type": "Point", "coordinates": [ 127.015241, 37.579661 ] } },
{ "type": "Feature", "properties": { "station_id": "ST281", "station_name": "천왕", "SWST_NM": "천왕", "hoseon": "7호선", "longitude": 126.838713, "latitude": 37.486637 }, "geometry": { "type": "Point", "coordinates": [ 126.838713, 37.486637 ] } },
{ "type": "Feature", "properties": { "station_id": "ST282", "station_name": "천호(풍납토성)", "SWST_NM": "천호(풍납토성)", "hoseon": "5호선", "longitude": 127.1232809999037, "latitude": 37.53837650000915 }, "geometry": { "type": "Point", "coordinates": [ 127.123280999903699, 37.53837650000915 ] } },
{ "type": "Feature", "properties": { "station_id": "ST283", "station_name": "청계산입구", "SWST_NM": "청계산입구", "hoseon": "신분당선", "longitude": 127.055664, "latitude": 37.447211 }, "geometry": { "type": "Point", "coordinates": [ 127.055664, 37.447211 ] } },
{ "type": "Feature", "properties": { "station_id": "ST284", "station_name": "청구", "SWST_NM": "청구", "hoseon": "5호선, 6호선", "longitude": 127.01381249961506, "latitude": 37.560442000129918 }, "geometry": { "type": "Point", "coordinates": [ 127.013812499615057, 37.560442000129918 ] } },
{ "type": "Feature", "properties": { "station_id": "ST285", "station_name": "청담", "SWST_NM": "청담", "hoseon": "7호선", "longitude": 127.05335, "latitude": 37.519365 }, "geometry": { "type": "Point", "coordinates": [ 127.05335, 37.519365 ] } },
{ "type": "Feature", "properties": { "station_id": "ST286", "station_name": "청량리(서울시립대입구)", "SWST_NM": "청량리(서울시립대입구)", "hoseon": "1호선", "longitude": 127.04644249003957, "latitude": 37.580357514634635 }, "geometry": { "type": "Point", "coordinates": [ 127.046442490039567, 37.580357514634635 ] } },
{ "type": "Feature", "properties": { "station_id": "ST287", "station_name": "총신대입구(이수)", "SWST_NM": "총신대입구(이수)", "hoseon": "4호선", "longitude": 126.981989, "latitude": 37.486263 }, "geometry": { "type": "Point", "coordinates": [ 126.981989, 37.486263 ] } },
{ "type": "Feature", "properties": { "station_id": "ST288", "station_name": "충무로", "SWST_NM": "충무로", "hoseon": "3호선, 4호선", "longitude": 126.99407600000598, "latitude": 37.561318500001121 }, "geometry": { "type": "Point", "coordinates": [ 126.994076000005975, 37.561318500001121 ] } },
{ "type": "Feature", "properties": { "station_id": "ST289", "station_name": "충정로(경기대입구)", "SWST_NM": "충정로(경기대입구)", "hoseon": "2호선, 5호선", "longitude": 126.96363900262567, "latitude": 37.559970002320142 }, "geometry": { "type": "Point", "coordinates": [ 126.963639002625669, 37.559970002320142 ] } },
{ "type": "Feature", "properties": { "station_id": "ST290", "station_name": "태릉입구", "SWST_NM": "태릉입구", "hoseon": "6호선, 7호선", "longitude": 127.07506599787919, "latitude": 37.617816000485895 }, "geometry": { "type": "Point", "coordinates": [ 127.075065997879193, 37.617816000485895 ] } },
{ "type": "Feature", "properties": { "station_id": "ST291", "station_name": "하계", "SWST_NM": "하계", "hoseon": "7호선", "longitude": 127.06799, "latitude": 37.636352 }, "geometry": { "type": "Point", "coordinates": [ 127.06799, 37.636352 ] } },
{ "type": "Feature", "properties": { "station_id": "ST292", "station_name": "학동", "SWST_NM": "학동", "hoseon": "7호선", "longitude": 127.031656, "latitude": 37.514229 }, "geometry": { "type": "Point", "coordinates": [ 127.031656, 37.514229 ] } },
{ "type": "Feature", "properties": { "station_id": "ST293", "station_name": "학여울", "SWST_NM": "학여울", "hoseon": "3호선", "longitude": 127.070594, "latitude": 37.496663 }, "geometry": { "type": "Point", "coordinates": [ 127.070594, 37.496663 ] } },
{ "type": "Feature", "properties": { "station_id": "ST294", "station_name": "한강진", "SWST_NM": "한강진", "hoseon": "6호선", "longitude": 127.001725, "latitude": 37.539631 }, "geometry": { "type": "Point", "coordinates": [ 127.001725, 37.539631 ] } },
{ "type": "Feature", "properties": { "station_id": "ST295", "station_name": "한남", "SWST_NM": "한남", "hoseon": "경의중앙선", "longitude": 127.009169, "latitude": 37.52943 }, "geometry": { "type": "Point", "coordinates": [ 127.009169, 37.52943 ] } },
{ "type": "Feature", "properties": { "station_id": "ST296", "station_name": "한성대입구(삼선교)", "SWST_NM": "한성대입구(삼선교)", "hoseon": "4호선", "longitude": 127.006221, "latitude": 37.588458 }, "geometry": { "type": "Point", "coordinates": [ 127.006221, 37.588458 ] } },
{ "type": "Feature", "properties": { "station_id": "ST297", "station_name": "한성백제", "SWST_NM": "한성백제", "hoseon": "9호선", "longitude": 127.116503, "latitude": 37.516404 }, "geometry": { "type": "Point", "coordinates": [ 127.116503, 37.516404 ] } },
{ "type": "Feature", "properties": { "station_id": "ST298", "station_name": "한양대", "SWST_NM": "한양대", "hoseon": "2호선", "longitude": 127.043655, "latitude": 37.555273 }, "geometry": { "type": "Point", "coordinates": [ 127.043655, 37.555273 ] } },
{ "type": "Feature", "properties": { "station_id": "ST299", "station_name": "한티", "SWST_NM": "한티", "hoseon": "수인분당선", "longitude": 127.052873, "latitude": 37.496237 }, "geometry": { "type": "Point", "coordinates": [ 127.052873, 37.496237 ] } },
{ "type": "Feature", "properties": { "station_id": "ST300", "station_name": "합정", "SWST_NM": "합정", "hoseon": "2호선, 6호선", "longitude": 126.91358699963368, "latitude": 37.549333000207668 }, "geometry": { "type": "Point", "coordinates": [ 126.913586999633679, 37.549333000207668 ] } },
{ "type": "Feature", "properties": { "station_id": "ST301", "station_name": "행당", "SWST_NM": "행당", "hoseon": "3호선", "longitude": 127.029476, "latitude": 37.557322 }, "geometry": { "type": "Point", "coordinates": [ 127.029476, 37.557322 ] } },
{ "type": "Feature", "properties": { "station_id": "ST302", "station_name": "혜화", "SWST_NM": "혜화", "hoseon": "4호선", "longitude": 127.001844, "latitude": 37.582336 }, "geometry": { "type": "Point", "coordinates": [ 127.001844, 37.582336 ] } },
{ "type": "Feature", "properties": { "station_id": "ST303", "station_name": "홍대입구", "SWST_NM": "홍대입구", "hoseon": "2호선, 경의중앙선, 공항철도", "longitude": 126.92570199334448, "latitude": 37.557289675090225 }, "geometry": { "type": "Point", "coordinates": [ 126.925701993344475, 37.557289675090225 ] } },
{ "type": "Feature", "properties": { "station_id": "ST304", "station_name": "홍제", "SWST_NM": "홍제", "hoseon": "3호선", "longitude": 126.943736, "latitude": 37.589066 }, "geometry": { "type": "Point", "coordinates": [ 126.943736, 37.589066 ] } },
{ "type": "Feature", "properties": { "station_id": "ST305", "station_name": "화계", "SWST_NM": "화계", "hoseon": "우이신설선", "longitude": 127.017511, "latitude": 37.634133 }, "geometry": { "type": "Point", "coordinates": [ 127.017511, 37.634133 ] } },
{ "type": "Feature", "properties": { "station_id": "ST306", "station_name": "화곡", "SWST_NM": "화곡", "hoseon": "5호선", "longitude": 126.840461, "latitude": 37.541513 }, "geometry": { "type": "Point", "coordinates": [ 126.840461, 37.541513 ] } },
{ "type": "Feature", "properties": { "station_id": "ST307", "station_name": "화랑대(서울여대입구)", "SWST_NM": "화랑대(서울여대입구)", "hoseon": "6호선", "longitude": 127.084689, "latitude": 37.620064 }, "geometry": { "type": "Point", "coordinates": [ 127.084689, 37.620064 ] } },
{ "type": "Feature", "properties": { "station_id": "ST308", "station_name": "회기", "SWST_NM": "회기", "hoseon": "1호선", "longitude": 127.057583, "latitude": 37.58946 }, "geometry": { "type": "Point", "coordinates": [ 127.057583, 37.58946 ] } },
{ "type": "Feature", "properties": { "station_id": "ST309", "station_name": "회현(남대문시장)", "SWST_NM": "회현(남대문시장)", "hoseon": "4호선", "longitude": 126.978246, "latitude": 37.558514 }, "geometry": { "type": "Point", "coordinates": [ 126.978246, 37.558514 ] } },
{ "type": "Feature", "properties": { "station_id": "ST310", "station_name": "효창공원앞", "SWST_NM": "효창공원앞", "hoseon": "6호선, 경의중앙선", "longitude": 126.96179700180355, "latitude": 37.538906000732261 }, "geometry": { "type": "Point", "coordinates": [ 126.961797001803546, 37.538906000732261 ] } },
{ "type": "Feature", "properties": { "station_id": "ST311", "station_name": "흑석(중앙대입구)", "SWST_NM": "흑석(중앙대입구)", "hoseon": "9호선", "longitude": 126.963708, "latitude": 37.50877 }, "geometry": { "type": "Point", "coordinates": [ 126.963708, 37.50877 ] } }
]
}
